{"type": "FeatureCollection", "features": [ {"type": "Feature", "properties": {"norad_id": 42917, "name": "QZS-3 (QZSS/PRN 199)", "group": "gnss", "lat": -0.0608551678095279, "lon": 134.33519776893414, "alt_km": 35790.024571936854, "timestamp": "2025-12-04T19:33:59.850283+00:00", "meta": {"OBJECT_NAME": "QZS-3 (QZSS/PRN 199)", "OBJECT_ID": "2017-048A", "EPOCH": "2025-12-04T07:28:52.066272", "MEAN_MOTION": 1.00275562, "ECCENTRICITY": 0.00021822, "INCLINATION": 0.0723, "RA_OF_ASC_NODE": 220.0211, "ARG_OF_PERICENTER": 36.4816, "MEAN_ANOMALY": 56.0883, "EPHEMERIS_TYPE": 0, "CLASSIFICATION_TYPE": "U", "NORAD_CAT_ID": 42917, "ELEMENT_SET_NO": 999, "REV_AT_EPOCH": 3030, "BSTAR": 0, "MEAN_MOTION_DOT": -3.32e-06, "MEAN_MOTION_DDOT": 0}, "tle": {"line1": "1 42917U 17048A   25338.31171373 -.00000332  00000+0  00000+0 0  9997", "line2": "2 42917   0.0723 220.0211 0002182  36.4816  56.0883  1.00275562 30300"}}, "geometry": {"type": "Point", "coordinates": [134.33519776893414, -0.0608551678095279]}}, {"type": "Feature", "properties": {"norad_id": 42939, "name": "COSMOS 2522 (752)", "group": "gnss", "lat": -23.62902781859061, "lon": -173.78229524807213, "alt_km": 19138.298484376857, "timestamp": "2025-12-04T19:33:59.850293+00:00", "meta": {"OBJECT_NAME": "COSMOS 2522 (752)", "OBJECT_ID": "2017-055A", "EPOCH": "2025-12-02T23:20:47.282208", "MEAN_MOTION": 2.1310185, "ECCENTRICITY": 0.00065327, "INCLINATION": 64.0758, "RA_OF_ASC_NODE": 198.5618, "ARG_OF_PERICENTER": 226.0683, "MEAN_ANOMALY": 133.9743, "EPHEMERIS_TYPE": 0, "CLASSIFICATION_TYPE": "U", "NORAD_CAT_ID": 42939, "ELEMENT_SET_NO": 999, "REV_AT_EPOCH": 6379, "BSTAR": 0, "MEAN_MOTION_DOT": 1.07e-06, "MEAN_MOTION_DDOT": 0}, "tle": {"line1": "1 42939U 17055A   25336.97276947  .00000107  00000+0  00000+0 0  9991", "line2": "2 42939  64.0758 198.5618 0006532 226.0683 133.9743  2.13101850 63796"}}, "geometry": {"type": "Point", "coordinates": [-173.78229524807213, -23.62902781859061]}}, {"type": "Feature", "properties": {"norad_id": 42965, "name": "QZS-4 (QZSS/PRN 195)", "group": "gnss", "lat": 18.390234283842517, "lon": 142.81308973206254, "alt_km": 37220.22409987074, "timestamp": "2025-12-04T19:33:59.850305+00:00", "meta": {"OBJECT_NAME": "QZS-4 (QZSS/PRN 195)", "OBJECT_ID": "2017-062A", "EPOCH": "2025-12-02T08:37:38.758368", "MEAN_MOTION": 1.0025504, "ECCENTRICITY": 0.07524683, "INCLINATION": 40.2317, "RA_OF_ASC_NODE": 346.0052, "ARG_OF_PERICENTER": 271.2474, "MEAN_ANOMALY": 80.8165, "EPHEMERIS_TYPE": 0, "CLASSIFICATION_TYPE": "U", "NORAD_CAT_ID": 42965, "ELEMENT_SET_NO": 999, "REV_AT_EPOCH": 2983, "BSTAR": 0, "MEAN_MOTION_DOT": -3.15e-06, "MEAN_MOTION_DDOT": 0}, "tle": {"line1": "1 42965U 17062A   25336.35947637 -.00000315  00000+0  00000+0 0  9993", "line2": "2 42965  40.2317 346.0052 0752468 271.2474  80.8165  1.00255040 29831"}}, "geometry": {"type": "Point", "coordinates": [142.81308973206254, 18.390234283842517]}}, {"type": "Feature", "properties": {"norad_id": 43001, "name": "BEIDOU-3 M1 (C19)", "group": "gnss", "lat": 32.63670749166203, "lon": 94.53540298355071, "alt_km": 21526.894220866725, "timestamp": "2025-12-04T19:33:59.850316+00:00", "meta": {"OBJECT_NAME": "BEIDOU-3 M1 (C19)", "OBJECT_ID": "2017-069A", "EPOCH": "2025-12-03T03:27:53.485056", "MEAN_MOTION": 1.86230745, "ECCENTRICITY": 0.00088373, "INCLINATION": 56.5186, "RA_OF_ASC_NODE": 69.5514, "ARG_OF_PERICENTER": 303.7187, "MEAN_ANOMALY": 56.1997, "EPHEMERIS_TYPE": 0, "CLASSIFICATION_TYPE": "U", "NORAD_CAT_ID": 43001, "ELEMENT_SET_NO": 999, "REV_AT_EPOCH": 5495, "BSTAR": 0, "MEAN_MOTION_DOT": -4.9e-07, "MEAN_MOTION_DDOT": 0}, "tle": {"line1": "1 43001U 17069A   25337.14436904 -.00000049  00000+0  00000+0 0  9994", "line2": "2 43001  56.5186  69.5514 0008837 303.7187  56.1997  1.86230745 54952"}}, "geometry": {"type": "Point", "coordinates": [94.53540298355071, 32.63670749166203]}}, {"type": "Feature", "properties": {"norad_id": 43002, "name": "BEIDOU-3 M2 (C20)", "group": "gnss", "lat": 55.63298898745917, "lon": 144.60383585990004, "alt_km": 21527.31845303062, "timestamp": "2025-12-04T19:33:59.850326+00:00", "meta": {"OBJECT_NAME": "BEIDOU-3 M2 (C20)", "OBJECT_ID": "2017-069B", "EPOCH": "2025-12-01T11:19:28.056000", "MEAN_MOTION": 1.86230616, "ECCENTRICITY": 0.00061649, "INCLINATION": 56.5166, "RA_OF_ASC_NODE": 69.6425, "ARG_OF_PERICENTER": 332.397, "MEAN_ANOMALY": 27.5733, "EPHEMERIS_TYPE": 0, "CLASSIFICATION_TYPE": "U", "NORAD_CAT_ID": 43002, "ELEMENT_SET_NO": 999, "REV_AT_EPOCH": 5491, "BSTAR": 0, "MEAN_MOTION_DOT": -4.1e-07, "MEAN_MOTION_DDOT": 0}, "tle": {"line1": "1 43002U 17069B   25335.47185250 -.00000041  00000+0  00000+0 0  9996", "line2": "2 43002  56.5166  69.6425 0006164 332.3970  27.5733  1.86230616 54915"}}, "geometry": {"type": "Point", "coordinates": [144.60383585990004, 55.63298898745917]}}, {"type": "Feature", "properties": {"norad_id": 43055, "name": "GSAT0215 (GALILEO 19)", "group": "gnss", "lat": -20.831277377002884, "lon": -148.50098036429344, "alt_km": 23220.748866988222, "timestamp": "2025-12-04T19:33:59.850336+00:00", "meta": {"OBJECT_NAME": "GSAT0215 (GALILEO 19)", "OBJECT_ID": "2017-079A", "EPOCH": "2025-11-29T13:52:03.216864", "MEAN_MOTION": 1.70473718, "ECCENTRICITY": 0.0001588, "INCLINATION": 55.1353, "RA_OF_ASC_NODE": 227.0004, "ARG_OF_PERICENTER": 310.5234, "MEAN_ANOMALY": 49.536, "EPHEMERIS_TYPE": 0, "CLASSIFICATION_TYPE": "U", "NORAD_CAT_ID": 43055, "ELEMENT_SET_NO": 999, "REV_AT_EPOCH": 4958, "BSTAR": 0, "MEAN_MOTION_DOT": 2.7e-07, "MEAN_MOTION_DDOT": 0}, "tle": {"line1": "1 43055U 17079A   25333.57781501  .00000027  00000+0  00000+0 0  9998", "line2": "2 43055  55.1353 227.0004 0001588 310.5234  49.5360  1.70473718 49587"}}, "geometry": {"type": "Point", "coordinates": [-148.50098036429344, -20.831277377002884]}}, {"type": "Feature", "properties": {"norad_id": 43056, "name": "GSAT0216 (GALILEO 20)", "group": "gnss", "lat": 19.84973031256538, "lon": 32.3034604992918, "alt_km": 23227.19049973183, "timestamp": "2025-12-04T19:33:59.850347+00:00", "meta": {"OBJECT_NAME": "GSAT0216 (GALILEO 20)", "OBJECT_ID": "2017-079B", "EPOCH": "2025-12-03T23:24:20.578752", "MEAN_MOTION": 1.70473886, "ECCENTRICITY": 0.00026826, "INCLINATION": 55.1334, "RA_OF_ASC_NODE": 226.8793, "ARG_OF_PERICENTER": 313.43, "MEAN_ANOMALY": 46.6407, "EPHEMERIS_TYPE": 0, "CLASSIFICATION_TYPE": "U", "NORAD_CAT_ID": 43056, "ELEMENT_SET_NO": 999, "REV_AT_EPOCH": 4967, "BSTAR": 0, "MEAN_MOTION_DOT": 4.1e-07, "MEAN_MOTION_DDOT": 0}, "tle": {"line1": "1 43056U 17079B   25337.97523818  .00000041  00000+0  00000+0 0  9998", "line2": "2 43056  55.1334 226.8793 0002682 313.4300  46.6407  1.70473886 49677"}}, "geometry": {"type": "Point", "coordinates": [32.3034604992918, 19.84973031256538]}}, {"type": "Feature", "properties": {"norad_id": 43057, "name": "GSAT0217 (GALILEO 21)", "group": "gnss", "lat": 16.36780185409887, "lon": -121.33898398064372, "alt_km": 23213.34914707604, "timestamp": "2025-12-04T19:33:59.850359+00:00", "meta": {"OBJECT_NAME": "GSAT0217 (GALILEO 21)", "OBJECT_ID": "2017-079C", "EPOCH": "2025-12-02T10:28:08.868000", "MEAN_MOTION": 1.70473685, "ECCENTRICITY": 0.00026117, "INCLINATION": 55.1312, "RA_OF_ASC_NODE": 226.9197, "ARG_OF_PERICENTER": 354.1722, "MEAN_ANOMALY": 5.9091, "EPHEMERIS_TYPE": 0, "CLASSIFICATION_TYPE": "U", "NORAD_CAT_ID": 43057, "ELEMENT_SET_NO": 999, "REV_AT_EPOCH": 4963, "BSTAR": 0, "MEAN_MOTION_DOT": 3.7e-07, "MEAN_MOTION_DDOT": 0}, "tle": {"line1": "1 43057U 17079C   25336.43621375  .00000037  00000+0  00000+0 0  9991", "line2": "2 43057  55.1312 226.9197 0002611 354.1722   5.9091  1.70473685 49635"}}, "geometry": {"type": "Point", "coordinates": [-121.33898398064372, 16.36780185409887]}}, {"type": "Feature", "properties": {"norad_id": 43058, "name": "GSAT0218 (GALILEO 22)", "group": "gnss", "lat": -48.06217176159614, "lon": 97.6652962025681, "alt_km": 23223.214528345794, "timestamp": "2025-12-04T19:33:59.850370+00:00", "meta": {"OBJECT_NAME": "GSAT0218 (GALILEO 22)", "OBJECT_ID": "2017-079D", "EPOCH": "2025-12-03T05:49:40.297728", "MEAN_MOTION": 1.70473824, "ECCENTRICITY": 0.00029171, "INCLINATION": 55.1321, "RA_OF_ASC_NODE": 226.8951, "ARG_OF_PERICENTER": 304.1404, "MEAN_ANOMALY": 55.9211, "EPHEMERIS_TYPE": 0, "CLASSIFICATION_TYPE": "U", "NORAD_CAT_ID": 43058, "ELEMENT_SET_NO": 999, "REV_AT_EPOCH": 4967, "BSTAR": 0, "MEAN_MOTION_DOT": 3.9e-07, "MEAN_MOTION_DDOT": 0}, "tle": {"line1": "1 43058U 17079D   25337.24282752  .00000039  00000+0  00000+0 0  9996", "line2": "2 43058  55.1321 226.8951 0002917 304.1404  55.9211  1.70473824 49672"}}, "geometry": {"type": "Point", "coordinates": [97.6652962025681, -48.06217176159614]}}, {"type": "Feature", "properties": {"norad_id": 43107, "name": "BEIDOU-3 M7 (C27)", "group": "gnss", "lat": -51.44181891372006, "lon": -167.43384153332306, "alt_km": 21540.77932151262, "timestamp": "2025-12-04T19:33:59.850380+00:00", "meta": {"OBJECT_NAME": "BEIDOU-3 M7 (C27)", "OBJECT_ID": "2018-003A", "EPOCH": "2025-12-02T06:56:05.635968", "MEAN_MOTION": 1.86232265, "ECCENTRICITY": 0.0002591, "INCLINATION": 54.5061, "RA_OF_ASC_NODE": 309.1785, "ARG_OF_PERICENTER": 70.8685, "MEAN_ANOMALY": 289.1495, "EPHEMERIS_TYPE": 0, "CLASSIFICATION_TYPE": "U", "NORAD_CAT_ID": 43107, "ELEMENT_SET_NO": 999, "REV_AT_EPOCH": 5368, "BSTAR": 0, "MEAN_MOTION_DOT": -6.3e-07, "MEAN_MOTION_DDOT": 0}, "tle": {"line1": "1 43107U 18003A   25336.28895412 -.00000063  00000+0  00000+0 0  9993", "line2": "2 43107  54.5061 309.1785 0002591  70.8685 289.1495  1.86232265 53687"}}, "geometry": {"type": "Point", "coordinates": [-167.43384153332306, -51.44181891372006]}}]}